[{"OBJECT_NAME":"STARLINK-35064","OBJECT_ID":"2025-200M","EPOCH":"2026-03-09T17:06:40.437792","MEAN_MOTION":15.05638857,"ECCENTRICITY":9.683e-5,"INCLINATION":97.6022,"RA_OF_ASC_NODE":139.8093,"ARG_OF_PERICENTER":132.5439,"MEAN_ANOMALY":227.587,"EPHEMERIS_TYPE":0,"CLASSIFICATION_TYPE":"U","NORAD_CAT_ID":65531,"ELEMENT_SET_NO":999,"REV_AT_EPOCH":2913,"BSTAR":0.00027821109,"MEAN_MOTION_DOT":3.955e-5,"MEAN_MOTION_DDOT":0},{"OBJECT_NAME":"XSS-10","OBJECT_ID":"2003-005B","EPOCH":"2026-03-09T22:36:04.304736","MEAN_MOTION":14.89771195,"ECCENTRICITY":0.01472532,"INCLINATION":39.7452,"RA_OF_ASC_NODE":284.3199,"ARG_OF_PERICENTER":105.9853,"MEAN_ANOMALY":255.7209,"EPHEMERIS_TYPE":0,"CLASSIFICATION_TYPE":"U","NORAD_CAT_ID":27664,"ELEMENT_SET_NO":999,"REV_AT_EPOCH":24782,"BSTAR":0.00036723179,"MEAN_MOTION_DOT":4.24e-5,"MEAN_MOTION_DDOT":0}]
